[{"OBJECT_NAME":"STARLINK-32175","OBJECT_ID":"2024-136L","EPOCH":"2026-03-09T10:12:22.126176","MEAN_MOTION":15.30196907,"ECCENTRICITY":0.0001314,"INCLINATION":53.1602,"RA_OF_ASC_NODE":76.9225,"ARG_OF_PERICENTER":84.2758,"MEAN_ANOMALY":275.8392,"EPHEMERIS_TYPE":0,"CLASSIFICATION_TYPE":"U","NORAD_CAT_ID":60339,"ELEMENT_SET_NO":999,"REV_AT_EPOCH":8962,"BSTAR":-3.5626797e-5,"MEAN_MOTION_DOT":-1.414e-5,"MEAN_MOTION_DDOT":0},{"OBJECT_NAME":"OBJECT N","OBJECT_ID":"2019-093N","EPOCH":"2026-03-09T21:41:56.087232","MEAN_MOTION":15.29897693,"ECCENTRICITY":0.0006278,"INCLINATION":98.0505,"RA_OF_ASC_NODE":226.9456,"ARG_OF_PERICENTER":33.3806,"MEAN_ANOMALY":326.7828,"EPHEMERIS_TYPE":0,"CLASSIFICATION_TYPE":"U","NORAD_CAT_ID":44891,"ELEMENT_SET_NO":999,"REV_AT_EPOCH":33957,"BSTAR":0.0010567776,"MEAN_MOTION_DOT":0.00030617,"MEAN_MOTION_DDOT":0}]
